COSMOS 2361 [-]         
1 25590U 98076A   17279.45783122  .00000031  00000-0  18071-4 0  9994
2 25590  82.9372  33.7391 0030321 296.2982 135.7964 13.72938764941208
COSMOS 2378 [-]         
1 26818U 01023A   17279.82455728  .00000043  00000-0  30409-4 0  9995
2 26818  82.9278  54.6531 0031583 247.5855 112.1952 13.73917614818867
COSMOS 2389 [-]         
1 27436U 02026A   17280.37610014  .00000046  00000-0  31698-4 0  9993
2 27436  82.9544 358.1928 0047672 117.3121 293.2876 13.74918152770882
COSMOS 2398 [-]         
1 27818U 03023A   17279.82306888  .00000055  00000-0  42886-4 0  9995
2 27818  82.9491 314.6570 0032317 130.6098 229.7876 13.72148429718244
COSMOS 2407 [+]         
1 28380U 04028A   17279.89790974  .00000068  00000-0  54047-4 0  9992
2 28380  82.9576 265.6231 0040281 129.4770 230.9962 13.76045327663363
COSMOS 2414 [+]         
1 28521U 05002A   17280.77046533  .00000046  00000-0  25149-4 0  9993
2 28521  82.9471 283.7044 0041188  20.2200 340.0583 13.87591615643896
COSMOS 2429 [-]         
1 32052U 07038A   17279.42080292  .00000022  00000-0  65611-5 0  9991
2 32052  82.9841  25.8173 0039828 101.8990 258.6636 13.74893980505334
COSMOS 2454 [-]         
1 35635U 09039A   17280.79858576  .00000057  00000-0  33870-4 0  9993
2 35635  82.9530 273.2221 0019225 344.7650  15.2934 13.89617721416693
COSMOS 2463 [+]         
1 36519U 10017A   17280.51840427 -.00000084  00000-0 -10903-3 0  9992
2 36519  82.9591  61.6388 0035128 298.7300  61.0323 13.71416248372868
